NORAD_CAT_ID,OBJECT_NAME,OBJECT_TYPE,EPOCH,MEAN_MOTION,ECCENTRICITY,INCLINATION,RA_OF_ASC_NODE,ARG_OF_PERICENTER,MEAN_ANOMALY,BSTAR,MEAN_MOTION_DOT,MEAN_MOTION_DDOT,TLE_LINE0,TLE_LINE1,TLE_LINE2,SEMIMAJOR_AXIS,PERIOD,APOGEE,PERIGEE,DECAYED
53531.0,STARLINK-4487,PAYLOAD,2023-04-26 15:38:41,15.08809506,0.0001309,53.2182,98.9467,118.8659,241.2465,4.244e-09,-2.88e-06,0.0,0 STARLINK-4487,1 53531U 22101E   23116.65186617 -.00000288  00000-0  42440-8 0  9997,2 53531  53.2182  98.9467 0001309 118.8659 241.2465 15.08809506 37943,6917.974,95.439,540.744,538.933,0.0
53531.0,STARLINK-4487,PAYLOAD,2023-04-26 23:35:36,15.08815637,0.0001078,53.2168,97.4579,114.7776,245.3328,4.3731e-05,4.08e-06,0.0,0 STARLINK-4487,1 53531U 22101E   23116.98306644  .00000408  00000-0  43731-4 0  9990,2 53531  53.2168  97.4579 0001078 114.7776 245.3328 15.08815637 37993,6917.955,95.439,540.566,539.074,0.0
53531.0,STARLINK-4487,PAYLOAD,2023-04-27 09:07:55,15.08820835,0.0001114,53.217,95.674,114.6125,245.4983,8.3492e-05,1.041e-05,0.0,0 STARLINK-4487,1 53531U 22101E   23117.38050783  .00001041  00000-0  83492-4 0  9997,2 53531  53.2170  95.6740 0001114 114.6125 245.4983 15.08820835 38056,6917.939,95.439,540.575,539.033,0.0
53531.0,STARLINK-4487,PAYLOAD,2023-04-28 05:47:56,15.0883415,0.0001059,53.2172,91.8082,110.0432,250.0674,0.00024064,3.543e-05,0.0,0 STARLINK-4487,1 53531U 22101E   23118.24162226  .00003543  00000-0  24064-3 0  9997,2 53531  53.2172  91.8082 0001059 110.0432 250.0674 15.08834150 38182,6917.898,95.438,540.496,539.031,0.0
53531.0,STARLINK-4487,PAYLOAD,2023-04-28 07:23:19,15.08835264,0.0001058,53.2172,91.5107,109.3445,250.7662,0.00024601,3.629e-05,0.0,0 STARLINK-4487,1 53531U 22101E   23118.30786180  .00003629  00000-0  24601-3 0  9997,2 53531  53.2172  91.5107 0001058 109.3445 250.7662 15.08835264 38193,6917.895,95.438,540.492,539.028,0.0
53531.0,STARLINK-4487,PAYLOAD,2023-04-29 07:14:05,15.08848908,0.0001095,53.2173,87.0506,103.6019,256.5096,0.00017241,2.458e-05,0.0,0 STARLINK-4487,1 53531U 22101E   23119.30145653  .00002458  00000-0  17241-3 0  9993,2 53531  53.2173  87.0506 0001095 103.6019 256.5096 15.08848908 38343,6917.853,95.437,540.476,538.961,0.0
53531.0,STARLINK-4487,PAYLOAD,2023-04-29 23:07:57,15.08847344,0.0001157,53.2179,84.0776,102.2289,257.8832,-2.3944e-05,-6.69e-06,0.0,0 STARLINK-4487,1 53531U 22101E   23119.96386232 -.00000669  00000-0 -23944-4 0  9997,2 53531  53.2179  84.0776 0001157 102.2289 257.8832 15.08847344 38444,6917.858,95.437,540.523,538.923,0.0
53531.0,STARLINK-4487,PAYLOAD,2023-04-30 07:04:53,15.08848796,0.0001215,53.2172,82.5896,104.5345,255.5782,-7.8182e-06,-4.12e-06,0.0,0 STARLINK-4487,1 53531U 22101E   23120.29505870 -.00000412  00000-0 -78182-5 0  9997,2 53531  53.2172  82.5896 0001215 104.5345 255.5782 15.08848796 38492,6917.854,95.437,540.559,538.878,0.0
53531.0,STARLINK-4487,PAYLOAD,2023-05-01 03:44:54,15.08840899,0.0001808,53.2183,78.7213,124.3335,235.7828,-7.233e-05,-1.439e-05,0.0,0 STARLINK-4487,1 53531U 22101E   23121.15618320 -.00001439  00000-0 -72330-4 0  9996,2 53531  53.2183  78.7213 0001808 124.3335 235.7828 15.08840899 38623,6917.878,95.437,540.993,538.492,0.0
53531.0,STARLINK-4487,PAYLOAD,2023-05-01 06:55:40,15.08846917,0.000165,53.2186,78.1264,121.1279,238.9875,-0.0001551,-2.756e-05,0.0,0 STARLINK-4487,1 53531U 22101E   23121.28866184 -.00002756  00000-0 -15510-3 0  9992,2 53531  53.2186  78.1264 0001650 121.1279 238.9875 15.08846917 38649,6917.859,95.437,540.866,538.583,0.0
53531.0,STARLINK-4487,PAYLOAD,2023-05-02 03:35:40,15.08848652,0.000118,53.2178,74.2611,108.2201,251.892,9.0206e-05,1.148e-05,0.0,0 STARLINK-4487,1 53531U 22101E   23122.14977175  .00001148  00000-0  90206-4 0  9999,2 53531  53.2178  74.2611 0001180 108.2201 251.8920 15.08848652 38779,6917.854,95.437,540.535,538.903,0.0
53531.0,STARLINK-4487,PAYLOAD,2023-05-02 21:04:55,15.08839115,0.0001027,53.2177,70.993,96.0384,264.0725,2.453e-05,1.03e-06,0.0,0 STARLINK-4487,1 53531U 22101E   23122.87841998  .00000103  00000-0  24530-4 0  9999,2 53531  53.2177  70.9930 0001027  96.0384 264.0725 15.08839115 38886,6917.883,95.438,540.459,539.038,0.0
53531.0,STARLINK-4487,PAYLOAD,2023-05-03 03:26:27,15.08844356,9.76e-05,53.2175,69.8049,96.6737,263.4367,4.2224e-05,3.84e-06,0.0,0 STARLINK-4487,1 53531U 22101E   23123.14337571  .00000384  00000-0  42224-4 0  9998,2 53531  53.2175  69.8049 0000976  96.6737 263.4367 15.08844356 38925,6917.867,95.437,540.407,539.057,0.0
53531.0,STARLINK-4487,PAYLOAD,2023-05-04 03:17:16,15.08798172,0.0001206,53.2182,65.3473,107.7135,252.3989,0.0003745,5.671e-05,0.0,0 STARLINK-4487,1 53531U 22101E   23124.13699406  .00005671  00000-0  37450-3 0  9994,2 53531  53.2182  65.3473 0001206 107.7135 252.3989 15.08798172 39076,6918.008,95.44,540.708,539.039,0.0
53531.0,STARLINK-4487,PAYLOAD,2023-05-04 06:28:01,15.0883872,9.76e-05,53.2182,64.7486,85.7691,274.3413,-3.4694e-05,-8.4e-06,0.0,0 STARLINK-4487,1 53531U 22101E   23124.26946368 -.00000840  00000-0 -34694-4 0  9993,2 53531  53.2182  64.7486 0000976  85.7691 274.3413 15.08838720 39090,6917.884,95.438,540.424,539.074,0.0
53531.0,STARLINK-4487,PAYLOAD,2023-05-04 19:11:06,15.08836172,0.000117,53.2183,62.3693,100.5765,259.5359,-3.0601e-05,-7.75e-06,0.0,0 STARLINK-4487,1 53531U 22101E   23124.79938634 -.00000775  00000-0 -30601-4 0  9999,2 53531  53.2183  62.3693 0001170 100.5765 259.5359 15.08836172 39172,6917.892,95.438,540.566,538.948,0.0
53531.0,STARLINK-4487,PAYLOAD,2023-05-05 04:43:24,15.08850946,0.0001428,53.2187,60.5865,107.7723,252.3425,3.2926e-05,2.36e-06,0.0,0 STARLINK-4487,1 53531U 22101E   23125.19681462  .00000236  00000-0  32926-4 0  9990,2 53531  53.2187  60.5865 0001428 107.7723 252.3425 15.08850946 39233,6917.847,95.437,540.7,538.724,0.0
53531.0,STARLINK-4487,PAYLOAD,2023-05-06 02:58:49,15.08842574,0.0001031,53.2185,56.4221,100.7898,259.321,9.6961e-05,1.256e-05,0.0,0 STARLINK-4487,1 53531U 22101E   23126.12417986  .00001256  00000-0  96961-4 0  9994,2 53531  53.2185  56.4221 0001031 100.7898 259.3210 15.08842574 39379,6917.873,95.437,540.451,539.024,0.0
53531.0,STARLINK-4487,PAYLOAD,2023-05-06 04:34:12,15.0884449,0.0001072,53.2182,56.1241,117.3279,242.7823,0.00010818,1.435e-05,0.0,0 STARLINK-4487,1 53531U 22101E   23126.19041706  .00001435  00000-0  10818-3 0  9999,2 53531  53.2182  56.1241 0001072 117.3279 242.7823 15.08844490 39383,6917.867,95.437,540.473,538.99,0.0
53531.0,STARLINK-4487,PAYLOAD,2023-05-07 02:49:35,15.08847818,0.0001188,53.218,51.9596,114.5399,245.5717,1.8078e-05,0.0,0.0,0 STARLINK-4487,1 53531U 22101E   23127.11777747  .00000000  00000-0  18078-4 0  9997,2 53531  53.2180  51.9596 0001188 114.5399 245.5717 15.08847818 39523,6917.856,95.437,540.543,538.9,0.0
53531.0,STARLINK-4487,PAYLOAD,2023-05-08 01:05:00,15.0883684,0.0001145,53.2192,47.7974,109.2872,250.8244,-5.8745e-05,-1.223e-05,0.0,0 STARLINK-4487,1 53531U 22101E   23128.04514905 -.00001223  00000-0 -58745-4 0  9990,2 53531  53.2192  47.7974 0001145 109.2872 250.8244 15.08836840 39661,6917.89,95.438,540.547,538.963,0.0
53531.0,STARLINK-4487,PAYLOAD,2023-05-08 21:45:01,15.08844792,0.0001114,53.2188,43.9338,89.6031,270.5089,-1.7276e-05,-5.63e-06,0.0,0 STARLINK-4487,1 53531U 22101E   23128.90626523 -.00000563  00000-0 -17276-4 0  9995,2 53531  53.2188  43.9338 0001114  89.6031 270.5089 15.08844792 39797,6917.866,95.437,540.501,538.96,0.0
53531.0,STARLINK-4487,PAYLOAD,2023-05-09 00:55:47,15.08849352,0.0001174,53.2184,43.3391,91.4891,268.6235,2.3774e-05,9.1e-07,0.0,0 STARLINK-4487,1 53531U 22101E   23129.03874067  .00000091  00000-0  23774-4 0  9992,2 53531  53.2184  43.3391 0001174  91.4891 268.6235 15.08849352 39818,6917.852,95.437,540.529,538.905,0.0
53531.0,STARLINK-4487,PAYLOAD,2023-05-10 00:46:34,15.08840645,0.0001183,53.2185,38.8789,89.5889,270.5238,8.1419e-05,1.008e-05,0.0,0 STARLINK-4487,1 53531U 22101E   23130.03234492  .00001008  00000-0  81419-4 0  9995,2 53531  53.2185  38.8789 0001183  89.5889 270.5238 15.08840645 39961,6917.878,95.438,540.562,538.925,0.0
53531.0,STARLINK-4487,PAYLOAD,2023-05-11 00:37:21,15.08844332,0.0001201,53.2172,34.4212,85.7138,274.3991,5.8877e-05,6.49e-06,0.0,0 STARLINK-4487,1 53531U 22101E   23131.02594394  .00000649  00000-0  58877-4 0  9997,2 53531  53.2172  34.4212 0001201  85.7138 274.3991 15.08844332 40110,6917.867,95.437,540.563,538.901,0.0
53531.0,STARLINK-4487,PAYLOAD,2023-05-12 00:28:09,15.08832353,0.0001039,53.2178,29.9594,87.3013,272.8098,-3.3722e-05,-8.24e-06,0.0,0 STARLINK-4487,1 53531U 22101E   23132.01955725 -.00000824  00000-0 -33722-4 0  9995,2 53531  53.2178  29.9594 0001039  87.3013 272.8098 15.08832353 40264,6917.904,95.438,540.488,539.05,0.0
53531.0,STARLINK-4487,PAYLOAD,2023-05-12 21:08:10,15.08840855,0.0001043,53.2179,26.0938,101.302,258.809,-1.2737e-05,-4.9e-06,0.0,0 STARLINK-4487,1 53531U 22101E   23132.88067424 -.00000490  00000-0 -12737-4 0  9992,2 53531  53.2179  26.0938 0001043 101.3020 258.8090 15.08840855 40391,6917.878,95.438,540.464,539.021,0.0
53531.0,STARLINK-4487,PAYLOAD,2023-05-13 00:18:56,15.08844986,0.0001072,53.2182,25.5008,96.6998,263.4116,3.3574e-05,2.47e-06,0.0,0 STARLINK-4487,1 53531U 22101E   23133.01315080  .00000247  00000-0  33574-4 0  9992,2 53531  53.2182  25.5008 0001072  96.6998 263.4116 15.08844986 40412,6917.865,95.437,540.472,538.989,0.0
53531.0,STARLINK-4487,PAYLOAD,2023-05-13 20:58:57,15.08836205,0.0001155,53.2185,21.6371,91.5932,268.5193,7.3632e-05,8.84e-06,0.0,0 STARLINK-4487,1 53531U 22101E   23133.87427749  .00000884  00000-0  73632-4 0  9998,2 53531  53.2185  21.6371 0001155  91.5932 268.5193 15.08836205 40549,6917.892,95.438,540.556,538.958,0.0
53531.0,STARLINK-4487,PAYLOAD,2023-05-14 00:09:43,15.08842042,0.0001145,53.2187,21.0383,95.9267,264.1856,9.488e-05,1.223e-05,0.0,0 STARLINK-4487,1 53531U 22101E   23134.00675244  .00001223  00000-0  94880-4 0  9995,2 53531  53.2187  21.0383 0001145  95.9267 264.1856 15.08842042 40562,6917.874,95.437,540.531,538.947,0.0
